NORAD_CAT_ID,OBJECT_NAME,OBJECT_TYPE,EPOCH,MEAN_MOTION,ECCENTRICITY,INCLINATION,RA_OF_ASC_NODE,ARG_OF_PERICENTER,MEAN_ANOMALY,BSTAR,MEAN_MOTION_DOT,MEAN_MOTION_DDOT,TLE_LINE0,TLE_LINE1,TLE_LINE2,SEMIMAJOR_AXIS,PERIOD,APOGEE,PERIGEE,DECAYED
52135.0,STARLINK-3729,PAYLOAD,2023-01-24 14:22:20,15.08845559,0.0001248,53.2134,147.1896,94.4252,265.6883,0.00084308,0.00013157,0.0,0 STARLINK-3729,1 52135U 22029AZ  23024.59885046  .00013157  00000-0  84308-3 0  9990,2 52135  53.2134 147.1896 0001248  94.4252 265.6883 15.08845559 48823,6917.863,95.437,540.592,538.865,0.0
52135.0,STARLINK-3729,PAYLOAD,2023-01-25 11:02:21,15.0883975,0.000117,53.2141,143.3267,97.9293,262.1832,0.00044121,6.741e-05,0.0,0 STARLINK-3729,1 52135U 22029AZ  23025.45997396  .00006741  00000-0  44121-3 0  9998,2 52135  53.2141 143.3267 0001170  97.9293 262.1832 15.08839750 48954,6917.880999999999,95.438,540.556,538.937,0.0
52135.0,STARLINK-3729,PAYLOAD,2023-01-25 14:13:08,15.08837439,0.0001039,53.214,142.7293,97.1337,262.9773,0.00027844,4.146e-05,0.0,0 STARLINK-3729,1 52135U 22029AZ  23025.59245421  .00004146  00000-0  27844-3 0  9998,2 52135  53.2140 142.7293 0001039  97.1337 262.9773 15.08837439 48976,6917.888000000001,95.438,540.472,539.034,0.0
52135.0,STARLINK-3729,PAYLOAD,2023-01-26 14:03:54,15.08865965,0.0001022,53.2146,138.268,88.3444,271.7665,0.0007351,0.00011439,0.0,0 STARLINK-3729,1 52135U 22029AZ  23026.58604509  .00011439  00000-0  73510-3 0  9998,2 52135  53.2146 138.2680 0001022  88.3444 271.7665 15.08865965 49126,6917.801,95.436,540.373,538.9590000000001,0.0
52135.0,STARLINK-3729,PAYLOAD,2023-01-27 02:46:59,15.08846058,9.28e-05,53.2139,135.8888,100.7839,259.3258,0.00016432,2.329e-05,0.0,0 STARLINK-3729,1 52135U 22029AZ  23027.11596885  .00002329  00000-0  16432-3 0  9993,2 52135  53.2139 135.8888 0000928 100.7839 259.3258 15.08846058 49203,6917.861999999999,95.437,540.369,539.085,0.0
52135.0,STARLINK-3729,PAYLOAD,2023-01-27 09:08:32,15.08821702,0.0001252,53.2135,134.7006,100.0065,260.1068,-0.00042702,-7.074e-05,0.0,0 STARLINK-3729,1 52135U 22029AZ  23027.38093651 -.00007074  00000-0 -42702-3 0  9998,2 52135  53.2135 134.7006 0001252 100.0065 260.1068 15.08821702 49246,6917.936,95.439,540.6669999999999,538.935,0.0
52135.0,STARLINK-3729,PAYLOAD,2023-01-27 13:54:42,15.08828215,0.0001217,53.2134,133.808,94.7597,265.3534,-0.00014888,-2.656e-05,0.0,0 STARLINK-3729,1 52135U 22029AZ  23027.57965812 -.00002656  00000-0 -14888-3 0  9991,2 52135  53.2134 133.8080 0001217  94.7597 265.3534 15.08828215 49271,6917.916,95.438,540.623,538.94,0.0
52135.0,STARLINK-3729,PAYLOAD,2023-01-28 02:37:47,15.0883649,0.0001233,53.2134,131.4293,91.6831,268.4303,3.039e-05,1.96e-06,0.0,0 STARLINK-3729,1 52135U 22029AZ  23028.10957844  .00000196  00000-0  30390-4 0  9999,2 52135  53.2134 131.4293 0001233  91.6831 268.4303 15.08836490 49357,6917.891,95.438,540.609,538.903,0.0
52135.0,STARLINK-3729,PAYLOAD,2023-01-28 13:45:29,15.08853282,0.0001357,53.2133,129.3481,94.2874,265.8273,0.0012051,0.0001895,0.0,0 STARLINK-3729,1 52135U 22029AZ  23028.57326080  .00018950  00000-0  12051-2 0  9991,2 52135  53.2133 129.3481 0001357  94.2874 265.8273 15.08853282 49427,6917.84,95.437,540.644,538.766,0.0
52135.0,STARLINK-3729,PAYLOAD,2023-01-29 02:28:34,15.08849242,0.0001472,53.2138,126.9694,110.8882,249.2268,0.00049239,7.559e-05,0.0,0 STARLINK-3729,1 52135U 22029AZ  23029.10317935  .00007559  00000-0  49239-3 0  9992,2 52135  53.2138 126.9694 0001472 110.8882 249.2268 15.08849242 49503,6917.852,95.437,540.735,538.699,0.0
52135.0,STARLINK-3729,PAYLOAD,2023-01-29 10:25:30,15.08840302,0.0001267,53.2132,125.482,94.5117,265.602,0.00018371,2.637e-05,0.0,0 STARLINK-3729,1 52135U 22029AZ  23029.43438241  .00002637  00000-0  18371-3 0  9997,2 52135  53.2132 125.4820 0001267  94.5117 265.6020 15.08840302 49554,6917.879,95.438,540.621,538.868,0.0
52135.0,STARLINK-3729,PAYLOAD,2023-01-29 13:36:16,15.08842147,0.0001309,53.2131,124.8871,93.5975,266.5167,0.0001902,2.741e-05,0.0,0 STARLINK-3729,1 52135U 22029AZ  23029.56686168  .00002741  00000-0  19020-3 0  9992,2 52135  53.2131 124.8871 0001309  93.5975 266.5167 15.08842147 49573,6917.874,95.437,540.644,538.833,0.0
52135.0,STARLINK-3729,PAYLOAD,2023-01-30 10:16:17,15.08837364,0.0001292,53.2139,121.0219,88.8347,271.2793,5.9989e-05,6.67e-06,0.0,0 STARLINK-3729,1 52135U 22029AZ  23030.42798574  .00000667  00000-0  59989-4 0  9998,2 52135  53.2139 121.0219 0001292  88.8347 271.2793 15.08837364 49705,6917.888,95.438,540.647,538.86,0.0
52135.0,STARLINK-3729,PAYLOAD,2023-01-30 11:51:41,15.0883942,0.0001314,53.2138,120.7242,85.3578,274.7564,7.463e-05,9e-06,0.0,0 STARLINK-3729,1 52135U 22029AZ  23030.49422484  .00000900  00000-0  74630-4 0  9999,2 52135  53.2138 120.7242 0001314  85.3578 274.7564 15.08839420 49719,6917.882,95.438,540.656,538.838,0.0
52135.0,STARLINK-3729,PAYLOAD,2023-01-30 15:02:27,15.08843324,0.0001311,53.2136,120.1298,84.8193,275.2949,0.00012954,1.775e-05,0.0,0 STARLINK-3729,1 52135U 22029AZ  23030.62670311  .00001775  00000-0  12954-3 0  9999,2 52135  53.2136 120.1298 0001311  84.8193 275.2949 15.08843324 49739,6917.87,95.437,540.642,538.828,0.0
52135.0,STARLINK-3729,PAYLOAD,2023-01-31 11:42:28,15.08841001,0.0001349,53.2143,116.2646,84.5166,275.598,0.00019769,2.86e-05,0.0,0 STARLINK-3729,1 52135U 22029AZ  23031.48782580  .00002860  00000-0  19769-3 0  9993,2 52135  53.2143 116.2646 0001349  84.5166 275.5980 15.08841001 49860,6917.877,95.437,540.676,538.809,0.0
52135.0,STARLINK-3729,PAYLOAD,2023-02-01 11:33:14,15.08850638,0.0001192,53.2143,111.8042,90.3203,269.7926,0.00021384,3.118e-05,0.0,0 STARLINK-3729,1 52135U 22029AZ  23032.48141838  .00003118  00000-0  21384-3 0  9992,2 52135  53.2143 111.8042 0001192  90.3203 269.7926 15.08850638 50014,6917.848,95.437,540.537,538.888,0.0
52135.0,STARLINK-3729,PAYLOAD,2023-02-01 22:40:56,15.08846978,0.000147,53.2158,109.7258,55.7495,304.3637,8.0978e-05,1.001e-05,0.0,0 STARLINK-3729,1 52135U 22029AZ  23032.94510022  .00001001  00000-0  80978-4 0  9992,2 52135  53.2158 109.7258 0001470  55.7495 304.3637 15.08846978 50086,6917.859,95.437,540.741,538.707,0.0
52135.0,STARLINK-3729,PAYLOAD,2023-02-02 11:24:01,15.08839399,0.0001227,53.2134,107.3408,113.9253,246.1868,-5.0864e-06,-3.69e-06,0.0,0 STARLINK-3729,1 52135U 22029AZ  23033.47502265 -.00000369  00000-0 -50864-5 0  9991,2 52135  53.2134 107.3408 0001227 113.9253 246.1868 15.08839399 50167,6917.882,95.438,540.596,538.898,0.0
52135.0,STARLINK-3729,PAYLOAD,2023-02-02 14:34:48,15.08841475,0.0001289,53.2139,106.7456,117.0865,243.0259,1.6955e-05,-1.8e-07,0.0,0 STARLINK-3729,1 52135U 22029AZ  23033.60750289 -.00000018  00000-0  16955-4 0  9999,2 52135  53.2139 106.7456 0001289 117.0865 243.0259 15.08841475 50180,6917.876,95.437,540.633,538.849,0.0
52135.0,STARLINK-3729,PAYLOAD,2023-02-03 12:50:12,15.08844827,0.0001193,53.2138,102.5824,107.0427,253.0696,7.866e-06,-1.63e-06,0.0,0 STARLINK-3729,1 52135U 22029AZ  23034.53486200 -.00000163  00000-0  78660-5 0  9994,2 52135  53.2138 102.5824 0001193 107.0427 253.0696 15.08844827 50325,6917.866,95.437,540.556,538.905,0.0
52135.0,STARLINK-3729,PAYLOAD,2023-02-03 14:25:35,15.0884423,0.0001254,53.2137,102.2846,111.4955,248.6171,9.2905e-06,-1.4e-06,0.0,0 STARLINK-3729,1 52135U 22029AZ  23034.60110215 -.00000140  00000-0  92905-5 0  9995,2 52135  53.2137 102.2846 0001254 111.4955 248.6171 15.08844230 50335,6917.867,95.437,540.6,538.865,0.0
52135.0,STARLINK-3729,PAYLOAD,2023-02-04 11:05:36,15.08844772,0.0001146,53.2139,98.4191,97.4811,262.6312,0.00018663,2.684e-05,0.0,0 STARLINK-3729,1 52135U 22029AZ  23035.46222279  .00002684  00000-0  18663-3 0  9995,2 52135  53.2139  98.4191 0001146  97.4811 262.6312 15.08844772 50468,6917.866,95.437,540.524,538.938,0.0
52135.0,STARLINK-3729,PAYLOAD,2023-02-04 20:37:55,15.08840448,0.0001151,53.213,96.6371,78.4477,281.6644,5.8126e-05,6.37e-06,0.0,0 STARLINK-3729,1 52135U 22029AZ  23035.85966474  .00000637  00000-0  58126-4 0  9995,2 52135  53.2130  96.6371 0001151  78.4477 281.6644 15.08840448 50524,6917.879,95.438,540.54,538.948,0.0
52135.0,STARLINK-3729,PAYLOAD,2023-02-05 02:59:28,15.08836131,0.0001458,53.2149,95.45,87.1742,272.9417,6.991e-05,8.25e-06,0.0,0 STARLINK-3729,1 52135U 22029AZ  23036.12463040  .00000825  00000-0  69910-4 0  9999,2 52135  53.2149  95.4500 0001458  87.1742 272.9417 15.08836131 50566,6917.892,95.438,540.766,538.749,0.0
52135.0,STARLINK-3729,PAYLOAD,2023-02-05 09:21:00,15.0883392,0.000137,53.2175,94.2591,102.2288,257.8858,3.9942e-05,3.48e-06,0.0,0 STARLINK-3729,1 52135U 22029AZ  23036.38959441  .00000348  00000-0  39942-4 0  9994,2 52135  53.2175  94.2591 0001370 102.2288 257.8858 15.08833920 50608,6917.899,95.438,540.712,538.816,0.0
52135.0,STARLINK-3729,PAYLOAD,2023-02-05 20:28:42,15.08839229,0.0001626,53.2174,92.1776,72.914,287.203,1.4366e-05,-5.9e-07,0.0,0 STARLINK-3729,1 52135U 22029AZ  23036.85327332 -.00000059  00000-0  14366-4 0  9997,2 52135  53.2174  92.1776 0001626  72.9140 287.2030 15.08839229 50677,6917.883,95.438,540.873,538.623,0.0
52135.0,STARLINK-3729,PAYLOAD,2023-02-06 10:47:10,15.08838005,0.0001827,53.2142,89.4987,43.1924,316.9211,-3.0411e-05,-7.72e-06,0.0,0 STARLINK-3729,1 52135U 22029AZ  23037.44943127 -.00000772  00000-0 -30411-4 0  9991,2 52135  53.2142  89.4987 0001827  43.1924 316.9211 15.08838005 50760,6917.886,95.438,541.015,538.488,0.0
52135.0,STARLINK-3729,PAYLOAD,2023-02-06 12:22:36,15.087877,9.56e-05,53.2142,89.2037,80.8494,279.2606,-0.0007166,-0.00011658,0.0,0 STARLINK-3729,1 52135U 22029AZ  23037.51569506 -.00011658  00000-0 -71660-3 0  9999,2 52135  53.2142  89.2037 0000956  80.8494 279.2606 15.08787700 50771,6918.04,95.441,540.567,539.244,0.0
52135.0,STARLINK-3729,PAYLOAD,2023-02-06 13:58:01,15.08787281,9.71e-05,53.2156,88.9051,80.7637,279.3465,-0.00038039,-6.328e-05,0.0,0 STARLINK-3729,1 52135U 22029AZ  23037.58195643 -.00006328  00000-0 -38039-3 0  9994,2 52135  53.2156  88.9051 0000971  80.7637 279.3465 15.08787281 50782,6918.042,95.441,540.578,539.235,0.0
